<?xml version="1.0" encoding="UTF-8"?>
<ndm xmlns:xsi="http://www.w3.org/2001/XMLSchema-instance" xsi:noNamespaceSchemaLocation="https://sanaregistry.org/r/ndmxml_unqualified/ndmxml-2.0.0-master-2.0.xsd">
<omm id="CCSDS_OMM_VERS" version="2.0">
<header><CREATION_DATE/><ORIGINATOR/></header><body><segment><metadata><OBJECT_NAME>ONEWEB-0062</OBJECT_NAME><OBJECT_ID>2020-008AJ</OBJECT_ID><CENTER_NAME>EARTH</CENTER_NAME><REF_FRAME>TEME</REF_FRAME><TIME_SYSTEM>UTC</TIME_SYSTEM><MEAN_ELEMENT_THEORY>SGP4</MEAN_ELEMENT_THEORY></metadata><data><meanElements><EPOCH>2024-08-01T22:01:42.666816</EPOCH><MEAN_MOTION>13.10374490</MEAN_MOTION><ECCENTRICITY>.000179</ECCENTRICITY><INCLINATION>87.8971</INCLINATION><RA_OF_ASC_NODE>172.3718</RA_OF_ASC_NODE><ARG_OF_PERICENTER>88.1539</ARG_OF_PERICENTER><MEAN_ANOMALY>271.9793</MEAN_ANOMALY></meanElements><tleParameters><EPHEMERIS_TYPE>0</EPHEMERIS_TYPE><CLASSIFICATION_TYPE>U</CLASSIFICATION_TYPE><NORAD_CAT_ID>45163</NORAD_CAT_ID><ELEMENT_SET_NO>999</ELEMENT_SET_NO><REV_AT_EPOCH>21857</REV_AT_EPOCH><BSTAR>-.18457E-2</BSTAR><MEAN_MOTION_DOT>-.632E-5</MEAN_MOTION_DOT><MEAN_MOTION_DDOT>0</MEAN_MOTION_DDOT></tleParameters></data></segment></body></omm>
<omm id="CCSDS_OMM_VERS" version="2.0">
<header><CREATION_DATE/><ORIGINATOR/></header><body><segment><metadata><OBJECT_NAME>ONEWEB-0065</OBJECT_NAME><OBJECT_ID>2020-008AK</OBJECT_ID><CENTER_NAME>EARTH</CENTER_NAME><REF_FRAME>TEME</REF_FRAME><TIME_SYSTEM>UTC</TIME_SYSTEM><MEAN_ELEMENT_THEORY>SGP4</MEAN_ELEMENT_THEORY></metadata><data><meanElements><EPOCH>2024-08-01T21:30:39.315168</EPOCH><MEAN_MOTION>13.10369916</MEAN_MOTION><ECCENTRICITY>.0002248</ECCENTRICITY><INCLINATION>87.8970</INCLINATION><RA_OF_ASC_NODE>172.3841</RA_OF_ASC_NODE><ARG_OF_PERICENTER>82.0470</ARG_OF_PERICENTER><MEAN_ANOMALY>278.0913</MEAN_ANOMALY></meanElements><tleParameters><EPHEMERIS_TYPE>0</EPHEMERIS_TYPE><CLASSIFICATION_TYPE>U</CLASSIFICATION_TYPE><NORAD_CAT_ID>45164</NORAD_CAT_ID><ELEMENT_SET_NO>999</ELEMENT_SET_NO><REV_AT_EPOCH>21900</REV_AT_EPOCH><BSTAR>-.42669E-3</BSTAR><MEAN_MOTION_DOT>-.136E-5</MEAN_MOTION_DOT><MEAN_MOTION_DDOT>0</MEAN_MOTION_DDOT></tleParameters></data></segment></body></omm>
<omm id="CCSDS_OMM_VERS" version="2.0">
<header><CREATION_DATE/><ORIGINATOR/></header><body><segment><metadata><OBJECT_NAME>ONEWEB-0066</OBJECT_NAME><OBJECT_ID>2020-020A</OBJECT_ID><CENTER_NAME>EARTH</CENTER_NAME><REF_FRAME>TEME</REF_FRAME><TIME_SYSTEM>UTC</TIME_SYSTEM><MEAN_ELEMENT_THEORY>SGP4</MEAN_ELEMENT_THEORY></metadata><data><meanElements><EPOCH>2024-08-01T22:00:51.124032</EPOCH><MEAN_MOTION>13.11414735</MEAN_MOTION><ECCENTRICITY>.0002059</ECCENTRICITY><INCLINATION>87.8994</INCLINATION><RA_OF_ASC_NODE>157.2798</RA_OF_ASC_NODE><ARG_OF_PERICENTER>67.5093</ARG_OF_PERICENTER><MEAN_ANOMALY>292.6252</MEAN_ANOMALY></meanElements><tleParameters><EPHEMERIS_TYPE>0</EPHEMERIS_TYPE><CLASSIFICATION_TYPE>U</CLASSIFICATION_TYPE><NORAD_CAT_ID>45424</NORAD_CAT_ID><ELEMENT_SET_NO>999</ELEMENT_SET_NO><REV_AT_EPOCH>21299</REV_AT_EPOCH><BSTAR>.12143E-2</BSTAR><MEAN_MOTION_DOT>.443E-5</MEAN_MOTION_DOT><MEAN_MOTION_DDOT>0</MEAN_MOTION_DDOT></tleParameters></data></segment></body></omm>
<omm id="CCSDS_OMM_VERS" version="2.0">
<header><CREATION_DATE/><ORIGINATOR/></header><body><segment><metadata><OBJECT_NAME>ONEWEB-0067</OBJECT_NAME><OBJECT_ID>2020-020B</OBJECT_ID><CENTER_NAME>EARTH</CENTER_NAME><REF_FRAME>TEME</REF_FRAME><TIME_SYSTEM>UTC</TIME_SYSTEM><MEAN_ELEMENT_THEORY>SGP4</MEAN_ELEMENT_THEORY></metadata><data><meanElements><EPOCH>2024-08-01T21:04:52.488192</EPOCH><MEAN_MOTION>13.11419238</MEAN_MOTION><ECCENTRICITY>.0002218</ECCENTRICITY><INCLINATION>87.8984</INCLINATION><RA_OF_ASC_NODE>157.2433</RA_OF_ASC_NODE><ARG_OF_PERICENTER>73.3278</ARG_OF_PERICENTER><MEAN_ANOMALY>286.8093</MEAN_ANOMALY></meanElements><tleParameters><EPHEMERIS_TYPE>0</EPHEMERIS_TYPE><CLASSIFICATION_TYPE>U</CLASSIFICATION_TYPE><NORAD_CAT_ID>45425</NORAD_CAT_ID><ELEMENT_SET_NO>999</ELEMENT_SET_NO><REV_AT_EPOCH>21304</REV_AT_EPOCH><BSTAR>-.12785E-2</BSTAR><MEAN_MOTION_DOT>-.44E-5</MEAN_MOTION_DOT><MEAN_MOTION_DDOT>0</MEAN_MOTION_DDOT></tleParameters></data></segment></body></omm>
<omm id="CCSDS_OMM_VERS" version="2.0">
<header><CREATION_DATE/><ORIGINATOR/></header><body><segment><metadata><OBJECT_NAME>ONEWEB-0080</OBJECT_NAME><OBJECT_ID>2020-020C</OBJECT_ID><CENTER_NAME>EARTH</CENTER_NAME><REF_FRAME>TEME</REF_FRAME><TIME_SYSTEM>UTC</TIME_SYSTEM><MEAN_ELEMENT_THEORY>SGP4</MEAN_ELEMENT_THEORY></metadata><data><meanElements><EPOCH>2024-08-01T21:21:46.299744</EPOCH><MEAN_MOTION>13.11420093</MEAN_MOTION><ECCENTRICITY>.0001693</ECCENTRICITY><INCLINATION>87.8996</INCLINATION><RA_OF_ASC_NODE>157.2877</RA_OF_ASC_NODE><ARG_OF_PERICENTER>73.1815</ARG_OF_PERICENTER><MEAN_ANOMALY>286.9498</MEAN_ANOMALY></meanElements><tleParameters><EPHEMERIS_TYPE>0</EPHEMERIS_TYPE><CLASSIFICATION_TYPE>U</CLASSIFICATION_TYPE><NORAD_CAT_ID>45426</NORAD_CAT_ID><ELEMENT_SET_NO>999</ELEMENT_SET_NO><REV_AT_EPOCH>21302</REV_AT_EPOCH><BSTAR>-.99303E-4</BSTAR><MEAN_MOTION_DOT>-.23E-6</MEAN_MOTION_DOT><MEAN_MOTION_DDOT>0</MEAN_MOTION_DDOT></tleParameters></data></segment></body></omm>
<omm id="CCSDS_OMM_VERS" version="2.0">
<header><CREATION_DATE/><ORIGINATOR/></header><body><segment><metadata><OBJECT_NAME>ONEWEB-0090</OBJECT_NAME><OBJECT_ID>2020-020D</OBJECT_ID><CENTER_NAME>EARTH</CENTER_NAME><REF_FRAME>TEME</REF_FRAME><TIME_SYSTEM>UTC</TIME_SYSTEM><MEAN_ELEMENT_THEORY>SGP4</MEAN_ELEMENT_THEORY></metadata><data><meanElements><EPOCH>2024-08-01T21:46:13.434816</EPOCH><MEAN_MOTION>13.11416211</MEAN_MOTION><ECCENTRICITY>.000206</ECCENTRICITY><INCLINATION>87.8999</INCLINATION><RA_OF_ASC_NODE>157.2695</RA_OF_ASC_NODE><ARG_OF_PERICENTER>80.2130</ARG_OF_PERICENTER><MEAN_ANOMALY>279.9230</MEAN_ANOMALY></meanElements><tleParameters><EPHEMERIS_TYPE>0</EPHEMERIS_TYPE><CLASSIFICATION_TYPE>U</CLASSIFICATION_TYPE><NORAD_CAT_ID>45427</NORAD_CAT_ID><ELEMENT_SET_NO>999</ELEMENT_SET_NO><REV_AT_EPOCH>21298</REV_AT_EPOCH><BSTAR>.21472E-2</BSTAR><MEAN_MOTION_DOT>.774E-5</MEAN_MOTION_DOT><MEAN_MOTION_DDOT>0</MEAN_MOTION_DDOT></tleParameters></data></segment></body></omm>
<omm id="CCSDS_OMM_VERS" version="2.0">
<header><CREATION_DATE/><ORIGINATOR/></header><body><segment><metadata><OBJECT_NAME>ONEWEB-0061</OBJECT_NAME><OBJECT_ID>2020-020E</OBJECT_ID><CENTER_NAME>EARTH</CENTER_NAME><REF_FRAME>TEME</REF_FRAME><TIME_SYSTEM>UTC</TIME_SYSTEM><MEAN_ELEMENT_THEORY>SGP4</MEAN_ELEMENT_THEORY></metadata><data><meanElements><EPOCH>2024-08-01T20:42:29.917728</EPOCH><MEAN_MOTION>13.11414212</MEAN_MOTION><ECCENTRICITY>.0002053</ECCENTRICITY><INCLINATION>87.8994</INCLINATION><RA_OF_ASC_NODE>157.2745</RA_OF_ASC_NODE><ARG_OF_PERICENTER>78.0048</ARG_OF_PERICENTER><MEAN_ANOMALY>282.1310</MEAN_ANOMALY></meanElements><tleParameters><EPHEMERIS_TYPE>0</EPHEMERIS_TYPE><CLASSIFICATION_TYPE>U</CLASSIFICATION_TYPE><NORAD_CAT_ID>45428</NORAD_CAT_ID><ELEMENT_SET_NO>999</ELEMENT_SET_NO><REV_AT_EPOCH>21293</REV_AT_EPOCH><BSTAR>-.1246E-2</BSTAR><MEAN_MOTION_DOT>-.429E-5</MEAN_MOTION_DOT><MEAN_MOTION_DDOT>0</MEAN_MOTION_DDOT></tleParameters></data></segment></body></omm>
<omm id="CCSDS_OMM_VERS" version="2.0">
<header><CREATION_DATE/><ORIGINATOR/></header><body><segment><metadata><OBJECT_NAME>ONEWEB-0081</OBJECT_NAME><OBJECT_ID>2020-020F</OBJECT_ID><CENTER_NAME>EARTH</CENTER_NAME><REF_FRAME>TEME</REF_FRAME><TIME_SYSTEM>UTC</TIME_SYSTEM><MEAN_ELEMENT_THEORY>SGP4</MEAN_ELEMENT_THEORY></metadata><data><meanElements><EPOCH>2024-08-01T22:05:43.437696</EPOCH><MEAN_MOTION>13.11416981</MEAN_MOTION><ECCENTRICITY>.0002111</ECCENTRICITY><INCLINATION>87.8995</INCLINATION><RA_OF_ASC_NODE>157.2812</RA_OF_ASC_NODE><ARG_OF_PERICENTER>72.8091</ARG_OF_PERICENTER><MEAN_ANOMALY>287.3268</MEAN_ANOMALY></meanElements><tleParameters><EPHEMERIS_TYPE>0</EPHEMERIS_TYPE><CLASSIFICATION_TYPE>U</CLASSIFICATION_TYPE><NORAD_CAT_ID>45429</NORAD_CAT_ID><ELEMENT_SET_NO>999</ELEMENT_SET_NO><REV_AT_EPOCH>21305</REV_AT_EPOCH><BSTAR>.97169E-3</BSTAR><MEAN_MOTION_DOT>.357E-5</MEAN_MOTION_DOT><MEAN_MOTION_DDOT>0</MEAN_MOTION_DDOT></tleParameters></data></segment></body></omm>
<omm id="CCSDS_OMM_VERS" version="2.0">
<header><CREATION_DATE/><ORIGINATOR/></header><body><segment><metadata><OBJECT_NAME>ONEWEB-0069</OBJECT_NAME><OBJECT_ID>2020-020G</OBJECT_ID><CENTER_NAME>EARTH</CENTER_NAME><REF_FRAME>TEME</REF_FRAME><TIME_SYSTEM>UTC</TIME_SYSTEM><MEAN_ELEMENT_THEORY>SGP4</MEAN_ELEMENT_THEORY></metadata><data><meanElements><EPOCH>2024-08-01T21:51:05.582592</EPOCH><MEAN_MOTION>13.11408906</MEAN_MOTION><ECCENTRICITY>.0001557</ECCENTRICITY><INCLINATION>87.8997</INCLINATION><RA_OF_ASC_NODE>157.2719</RA_OF_ASC_NODE><ARG_OF_PERICENTER>81.6116</ARG_OF_PERICENTER><MEAN_ANOMALY>278.5188</MEAN_ANOMALY></meanElements><tleParameters><EPHEMERIS_TYPE>0</EPHEMERIS_TYPE><CLASSIFICATION_TYPE>U</CLASSIFICATION_TYPE><NORAD_CAT_ID>45430</NORAD_CAT_ID><ELEMENT_SET_NO>999</ELEMENT_SET_NO><REV_AT_EPOCH>21298</REV_AT_EPOCH><BSTAR>.61968E-2</BSTAR><MEAN_MOTION_DOT>.2209E-4</MEAN_MOTION_DOT><MEAN_MOTION_DDOT>0</MEAN_MOTION_DDOT></tleParameters></data></segment></body></omm>

</ndm>
